QIANFAN-60              
1 62790U 25016F   26022.95950056  .00000137  00000+0  19433-3 0  9992
2 62790  88.9738  98.8143 0015042 217.5445 142.4657 13.50986543 52798
QIANFAN-61              
1 62791U 25016G   26022.91840049  .00000179  00000+0  25911-3 0  9993
2 62791  88.9806  99.0096 0013981 216.5759 143.4439 13.50987970 52808
QIANFAN-62              
1 62792U 25016H   26022.92252303  .00000181  00000+0  26201-3 0  9991
2 62792  88.9752  98.8553 0015348 217.6065 142.4014 13.50990584 52796
QIANFAN-63              
1 62793U 25016J   26022.94719311  .00000185  00000+0  26837-3 0  9990
2 62793  88.9759  98.8070 0015246 223.1246 136.8712 13.50988797 52838
QIANFAN-64              
1 62794U 25016K   26022.91427339  .00000178  00000+0  25679-3 0  9999
2 62794  88.9745  98.7790 0013408 214.8322 145.1952 13.50987292 52829
QIANFAN-65              
1 62795U 25016L   26022.91021562  .00000182  00000+0  26392-3 0  9996
2 62795  88.9742  98.8040 0013202 216.5348 143.4903 13.50986009 52805
QIANFAN-66              
1 62796U 25016M   26022.93896352  .00000182  00000+0  26323-3 0  9990
2 62796  88.9761  98.7792 0014458 212.4675 147.5588 13.50990793 52856
QIANFAN-67              
1 62797U 25016N   26022.94308186  .00000178  00000+0  25690-3 0  9996
2 62797  88.9752  98.8003 0014199 219.6231 140.3883 13.50995057 52826
QIANFAN-68              
1 62798U 25016P   26022.93486298  .00000195  00000+0  28340-3 0  9991
2 62798  88.9755  98.8478 0014311 217.8323 142.1824 13.50986981 52803
QIANFAN-69              
1 62799U 25016Q   26022.95131124  .00000169  00000+0  24381-3 0  9991
2 62799  88.9734  98.7067 0015007 219.2999 140.7064 13.50987329 52843
QIANFAN-70              
1 62800U 25016R   26022.89375991  .00000181  00000+0  26099-3 0  9991
2 62800  88.9755  98.8599 0014924 209.3061 150.7254 13.50991131 52799
QIANFAN-71              
1 62801U 25016S   26022.96363058  .00000176  00000+0  25375-3 0  9991
2 62801  88.9749  98.8296 0014815 222.9377 137.0618 13.50990476 52802
QIANFAN-72              
1 62802U 25016T   26022.90601504  .00000187  00000+0  27066-3 0  9998
2 62802  88.9739  98.8449 0017839 231.8925 128.0618 13.50990442 52789
QIANFAN-73              
1 63159U 25046A   26022.93314264  .00000303  00000+0  45106-3 0  9999
2 63159  88.9796 315.7663 0015889  11.5523 348.5990 13.50992699 52976
QIANFAN-74              
1 63160U 25046B   26022.91663177  .00000315  00000+0  46968-3 0  9999
2 63160  88.9796 315.6569 0001856  68.7360 291.3990 13.50989924 53034
QIANFAN-75              
1 63161U 25046C   26022.97784064  .00000326  00000+0  48658-3 0  9995
2 63161  88.9797 315.8847 0017180  13.7335 346.4280 13.50993738 52914
QIANFAN-76              
1 63162U 25046D   26022.97447202  .00000318  00000+0  47390-3 0  9999
2 63162  88.9796 315.8654 0014766  15.2790 344.8805 13.50995551 52920
QIANFAN-77              
1 63163U 25046E   26022.96885177  .00000750  00000+0  53675-3 0  9999
2 63163  88.9795 313.5351 0013862 320.0652  39.9504 13.96133106 54200
QIANFAN-78              
1 63164U 25046F   26022.94132468  .00000327  00000+0  48677-3 0  9992
2 63164  88.9795 315.7324 0016200  16.8688 343.2999 13.50994538 52990
QIANFAN-79              
1 63165U 25046G   26022.89592768  .00000318  00000+0  47377-3 0  9996
2 63165  88.9799 315.8462 0015866  15.5674 344.5962 13.50991585 52934
QIANFAN-80              
1 63166U 25046H   26022.91245134  .00000328  00000+0  48978-3 0  9991
2 63166  88.9797 315.5504 0014928  19.8026 340.3702 13.50994299 53092
QIANFAN-81              
1 63167U 25046J   26022.96410696  .00000311  00000+0  46318-3 0  9992
2 63167  88.9797 315.6128 0015621   8.5170 351.6244 13.51020456 53050
QIANFAN-82              
1 63168U 25046K   26022.92492561  .00000315  00000+0  46958-3 0  9994
2 63168  88.9797 315.6609 0013994  16.7826 343.3785 13.50993395 53031
QIANFAN-83              
1 63169U 25046L   26022.91353395  .00000402  00000+0  50618-3 0  9990
2 63169  88.9797 315.3577 0014717   0.5402 359.5769 13.61996736 53202
QIANFAN-84              
1 63170U 25046M   26022.87835028  .00000326  00000+0  48661-3 0  9995
2 63170  88.9796 315.7981 0016852  12.4066 347.7497 13.51002963 52953
QIANFAN-85              
1 63171U 25046N   26022.87542137  .00000315  00000+0  46907-3 0  9991
2 63171  88.9796 315.6702 0014323  15.6618 344.4973 13.50992210 53027
QIANFAN-86              
1 63172U 25046P   26022.95780214  .00000319  00000+0  47455-3 0  9994
2 63172  88.9798 315.5248 0012323  20.5009 339.6634 13.50994136 53110
QIANFAN-87              
1 63173U 25046Q   26022.92919944  .00000314  00000+0  46782-3 0  9993
2 63173  88.9794 315.6378 0012845  15.9433 344.2119 13.50991686 53049
QIANFAN-88              
1 63174U 25046R   26022.87127541  .00000326  00000+0  48633-3 0  9992
2 63174  88.9797 315.5994 0013458  23.0725 337.1028 13.50997828 53067
QIANFAN-89              
1 63175U 25046S   26022.98231329  .00000329  00000+0  49083-3 0  9998
2 63175  88.9797 315.7769 0017518  12.2036 347.9536 13.50994535 52970
QIANFAN-90              
1 63176U 25046T   26022.93699413  .00000319  00000+0  47491-3 0  9996
2 63176  88.9797 315.7540 0014429  11.9829 348.1663 13.50993937 52982
QIANFAN-91              
1 66033U 25233A   26022.89567746  .00000093  00000+0  12513-3 0  9993
2 66033  88.9915  57.9149 0001896  90.1731 269.9638 13.50990827 13562
QIANFAN-92              
1 66034U 25233B   26022.90386604  .00000132  00000+0  18553-3 0  9992
2 66034  88.9898  57.9097 0005615 273.1375  86.9133 13.50990163 13565
QIANFAN-93              
1 66035U 25233C   26021.57890119 -.02079536  00000+0 -35641+1 0  9998
2 66035  88.9923  58.0542 0000980 234.6160 125.4899 13.48762566 13385
QIANFAN-94              
1 66036U 25233D   26022.76141060 -.00057292  00000+0 -78821-1 0  9996
2 66036  88.9923  57.8471 0013780 273.4487  86.5092 13.58845750 13592
QIANFAN-95              
1 66037U 25233E   26021.53273022 -.02083274  00000+0 -18752+1 0  9992
2 66037  88.9923  57.6318 0015566 255.4993 104.4452 13.88191175 13629
QIANFAN-96              
1 66038U 25233F   26022.93270606  .00000091  00000+0  12263-3 0  9999
2 66038  88.9917  57.9218 0001836  89.2008 270.9353 13.50991296 13563
QIANFAN-97              
1 66039U 25233G   26022.91626506  .00000079  00000+0  10340-3 0  9992
2 66039  88.9920  57.9028 0001913  90.8127 269.3243 13.50992661 13571
QIANFAN-98              
1 66040U 25233H   26022.11987656  .00000131  00000+0  12781-3 0  9992
2 66040  88.9921  57.7471 0013351 273.9584  86.0053 13.73017645 13594
QIANFAN-99              
1 66041U 25233J   26022.92859895  .00000092  00000+0  12442-3 0  9995
2 66041  88.9921  57.9047 0001853 102.8587 257.2772 13.50992475 13579
QIANFAN-100             
1 66042U 25233K   26022.92036739  .00000008  00000+0 -63935-5 0  9993
2 66042  88.9931  57.8162 0001943  90.0857 270.0517 13.50993708 13622
QIANFAN-101             
1 66043U 25233L   26022.90689999  .00000389  00000+0  15472-3 0  9996
2 66043  88.9920  57.2789 0012573 258.2207 101.7576 14.26699162 13916
QIANFAN-102             
1 66044U 25233M   26022.91212856 -.00076684  00000+0 -10679+0 0  9995
2 66044  88.9918  57.8303 0013240 279.0822  80.8835 13.58234917 13617
QIANFAN-103             
1 66045U 25233N   26022.94496161  .00000129  00000+0  18084-3 0  9993
2 66045  88.9921  57.9071 0001945  89.2109 270.9266 13.50987155 13579
QIANFAN-104             
1 66046U 25233P   26022.60503344  .00000117  00000+0  14098-3 0  9997
2 66046  88.9901  57.8432 0012969 271.2544  88.7127 13.59722012 13582
QIANFAN-105             
1 66047U 25233Q   26021.71016019  .00000167  00000+0  15207-3 0  9995
2 66047  88.9943  57.7828 0014222 267.1530  92.8009 13.78552380 13541
QIANFAN-106             
1 66048U 25233R   26022.87922030  .00000071  00000+0  92132-4 0  9990
2 66048  88.9921  57.8956 0000570 283.8178  76.2910 13.50959198 13573
QIANFAN-107             
1 66049U 25233S   26022.88741273  .00000030  00000+0  27508-4 0  9990
2 66049  88.9923  57.9002 0001956  90.4939 269.6436 13.50990480 13575
QIANFAN-108             
1 66050U 25233T   26021.55810364 -.02059567  00000+0 -35346+1 0  9991
2 66050  88.9935  58.0373 0008119 287.5424  72.4838 13.48623702 13392
